{
  "type": "FeatureCollection",
  "features": [
    {
      "type": "Feature",
      "properties": {
        "norad_id": 66366,
        "name": "STARLINK-35845",
        "group": "last-30-days",
        "lat": 52.39624569643631,
        "lon": 52.9034832841024,
        "alt_km": 400.76681993730017,
        "timestamp": "2025-12-05T19:30:24.348919+00:00",
        "meta_object_name": "STARLINK-35845",
        "meta_object_id": "2025-254U",
        "meta_epoch": "2025-12-05T06:00:02.000160",
        "meta_mean_motion": 15.55246796,
        "meta_eccentricity": 0.00015306,
        "meta_inclination": 53.1595,
        "meta_ra_of_asc_node": 312.374,
        "meta_arg_of_pericenter": 86.6357,
        "meta_mean_anomaly": 101.3598,
        "meta_ephemeris_type": 0,
        "meta_classification_type": "U",
        "meta_norad_cat_id": 66366,
        "meta_element_set_no": 999,
        "meta_rev_at_epoch": 571,
        "meta_bstar": -0.03416077,
        "meta_mean_motion_dot": -0.02094328,
        "meta_mean_motion_ddot": 0,
        "tle_line1": "1 66366U 25254U   25339.25002315 -.02094328  00000+0 -34161-1 0  9990",
        "tle_line2": "2 66366  53.1595 312.3740 0001530  86.6357 101.3598 15.55246796  5711"
      },
      "geometry": {
        "type": "Point",
        "coordinates": [
          52.9034832841024,
          52.39624569643631
        ]
      }
    },
    {
      "type": "Feature",
      "properties": {
        "norad_id": 66367,
        "name": "STARLINK-35846",
        "group": "last-30-days",
        "lat": 51.53484433330515,
        "lon": 58.96897856290351,
        "alt_km": 400.86284138186784,
        "timestamp": "2025-12-05T19:30:24.348929+00:00",
        "meta_object_name": "STARLINK-35846",
        "meta_object_id": "2025-254V",
        "meta_epoch": "2025-12-05T06:00:02.000160",
        "meta_mean_motion": 15.55247615,
        "meta_eccentricity": 0.00015418,
        "meta_inclination": 53.1595,
        "meta_ra_of_asc_node": 312.3661,
        "meta_arg_of_pericenter": 95.0837,
        "meta_mean_anomaly": 96.742,
        "meta_ephemeris_type": 0,
        "meta_classification_type": "U",
        "meta_norad_cat_id": 66367,
        "meta_element_set_no": 999,
        "meta_rev_at_epoch": 567,
        "meta_bstar": -0.034138764,
        "meta_mean_motion_dot": -0.02093192,
        "meta_mean_motion_ddot": 0,
        "tle_line1": "1 66367U 25254V   25339.25002315 -.02093192  00000+0 -34139-1 0  9994",
        "tle_line2": "2 66367  53.1595 312.3661 0001541  95.0837  96.7420 15.55247615  5670"
      },
      "geometry": {
        "type": "Point",
        "coordinates": [
          58.96897856290351,
          51.53484433330515
        ]
      }
    },
    {
      "type": "Feature",
      "properties": {
        "norad_id": 66368,
        "name": "STARLINK-34861",
        "group": "last-30-days",
        "lat": -47.5340714618097,
        "lon": -105.74462185645632,
        "alt_km": 351.23377078242993,
        "timestamp": "2025-12-05T19:30:24.348940+00:00",
        "meta_object_name": "STARLINK-34861",
        "meta_object_id": "2025-254W",
        "meta_epoch": "2025-12-04T19:24:47.965536",
        "meta_mean_motion": 15.74136334,
        "meta_eccentricity": 8.152e-05,
        "meta_inclination": 53.1575,
        "meta_ra_of_asc_node": 314.2484,
        "meta_arg_of_pericenter": 42.9884,
        "meta_mean_anomaly": 317.12,
        "meta_ephemeris_type": 0,
        "meta_classification_type": "U",
        "meta_norad_cat_id": 66368,
        "meta_element_set_no": 999,
        "meta_rev_at_epoch": 443,
        "meta_bstar": 0.000865279,
        "meta_mean_motion_dot": 0.00127738,
        "meta_mean_motion_ddot": 0,
        "tle_line1": "1 66368U 25254W   25338.80888849  .00127738  00000+0  86528-3 0  9990",
        "tle_line2": "2 66368  53.1575 314.2484 0000815  42.9884 317.1200 15.74136334  4434"
      },
      "geometry": {
        "type": "Point",
        "coordinates": [
          -105.74462185645632,
          -47.5340714618097
        ]
      }
    },
    {
      "type": "Feature",
      "properties": {
        "norad_id": 66369,
        "name": "STARLINK-35795",
        "group": "last-30-days",
        "lat": -46.44200558188328,
        "lon": -102.791018503661,
        "alt_km": 349.439978240498,
        "timestamp": "2025-12-05T19:30:24.348950+00:00",
        "meta_object_name": "STARLINK-35795",
        "meta_object_id": "2025-254X",
        "meta_epoch": "2025-12-04T02:39:36.815328",
        "meta_mean_motion": 15.74349696,
        "meta_eccentricity": 0.00030446,
        "meta_inclination": 53.1567,
        "meta_ra_of_asc_node": 317.7168,
        "meta_arg_of_pericenter": 147.1731,
        "meta_mean_anomaly": 212.9479,
        "meta_ephemeris_type": 0,
        "meta_classification_type": "U",
        "meta_norad_cat_id": 66369,
        "meta_element_set_no": 999,
        "meta_rev_at_epoch": 432,
        "meta_bstar": 0.0021458163,
        "meta_mean_motion_dot": 0.00328479,
        "meta_mean_motion_ddot": 0,
        "tle_line1": "1 66369U 25254X   25338.11084277  .00328479  00000+0  21458-2 0  9993",
        "tle_line2": "2 66369  53.1567 317.7168 0003044 147.1731 212.9479 15.74349696  4324"
      },
      "geometry": {
        "type": "Point",
        "coordinates": [
          -102.791018503661,
          -46.44200558188328
        ]
      }
    },
    {
      "type": "Feature",
      "properties": {
        "norad_id": 66370,
        "name": "STARLINK-35824",
        "group": "last-30-days",
        "lat": -45.795685302494604,
        "lon": -101.1787278524671,
        "alt_km": 352.23832773333925,
        "timestamp": "2025-12-05T19:30:24.348962+00:00",
        "meta_object_name": "STARLINK-35824",
        "meta_object_id": "2025-254Y",
        "meta_epoch": "2025-12-05T07:35:12.725664",
        "meta_mean_motion": 15.74416564,
        "meta_eccentricity": 2.907e-05,
        "meta_inclination": 53.1572,
        "meta_ra_of_asc_node": 311.7243,
        "meta_arg_of_pericenter": 144.1395,
        "meta_mean_anomaly": 215.9645,
        "meta_ephemeris_type": 0,
        "meta_classification_type": "U",
        "meta_norad_cat_id": 66370,
        "meta_element_set_no": 999,
        "meta_rev_at_epoch": 451,
        "meta_bstar": -0.0027617074,
        "meta_mean_motion_dot": -0.00390695,
        "meta_mean_motion_ddot": 0,
        "tle_line1": "1 66370U 25254Y   25339.31611951 -.00390695  00000+0 -27617-2 0  9997",
        "tle_line2": "2 66370  53.1572 311.7243 0000290 144.1395 215.9645 15.74416564  4511"
      },
      "geometry": {
        "type": "Point",
        "coordinates": [
          -101.1787278524671,
          -45.795685302494604
        ]
      }
    },
    {
      "type": "Feature",
      "properties": {
        "norad_id": 66371,
        "name": "STARLINK-35804",
        "group": "last-30-days",
        "lat": -44.77129471440818,
        "lon": -98.80546899549083,
        "alt_km": 351.66074598752493,
        "timestamp": "2025-12-05T19:30:24.348973+00:00",
        "meta_object_name": "STARLINK-35804",
        "meta_object_id": "2025-254Z",
        "meta_epoch": "2025-12-05T00:00:02.999808",
        "meta_mean_motion": 15.74124594,
        "meta_eccentricity": 0.00011956,
        "meta_inclination": 53.158,
        "meta_ra_of_asc_node": 313.2878,
        "meta_arg_of_pericenter": 90.6735,
        "meta_mean_anomaly": 278.9415,
        "meta_ephemeris_type": 0,
        "meta_classification_type": "U",
        "meta_norad_cat_id": 66371,
        "meta_element_set_no": 999,
        "meta_rev_at_epoch": 567,
        "meta_bstar": 0.0010837698,
        "meta_mean_motion_dot": 0.00160705,
        "meta_mean_motion_ddot": 0,
        "tle_line1": "1 66371U 25254Z   25339.00003472  .00160705  00000+0  10838-2 0  9999",
        "tle_line2": "2 66371  53.1580 313.2878 0001195  90.6735 278.9415 15.74124594  5671"
      },
      "geometry": {
        "type": "Point",
        "coordinates": [
          -98.80546899549083,
          -44.77129471440818
        ]
      }
    },
    {
      "type": "Feature",
      "properties": {
        "norad_id": 66372,
        "name": "STARLINK-35821",
        "group": "last-30-days",
        "lat": -43.38799308988509,
        "lon": -95.88603265637822,
        "alt_km": 347.64574171914137,
        "timestamp": "2025-12-05T19:30:24.348983+00:00",
        "meta_object_name": "STARLINK-35821",
        "meta_object_id": "2025-254AA",
        "meta_epoch": "2025-12-04T10:15:15.064416",
        "meta_mean_motion": 15.7441561,
        "meta_eccentricity": 0.0001567,
        "meta_inclination": 53.1569,
        "meta_ra_of_asc_node": 316.1358,
        "meta_arg_of_pericenter": 64.6576,
        "meta_mean_anomaly": 295.4606,
        "meta_ephemeris_type": 0,
        "meta_classification_type": "U",
        "meta_norad_cat_id": 66372,
        "meta_element_set_no": 999,
        "meta_rev_at_epoch": 437,
        "meta_bstar": 0.0030875,
        "meta_mean_motion_dot": 0.00483155,
        "meta_mean_motion_ddot": 0,
        "tle_line1": "1 66372U 25254AA  25338.42725769  .00483155  00000+0  30875-2 0  9995",
        "tle_line2": "2 66372  53.1569 316.1358 0001567  64.6576 295.4606 15.74415610  4375"
      },
      "geometry": {
        "type": "Point",
        "coordinates": [
          -95.88603265637822,
          -43.38799308988509
        ]
      }
    }
  ]
}